{"type": "FeatureCollection", "features": [ {"type": "Feature", "properties": {"norad_id": 33939, "name": "COSMOS 2251 DEB", "group": "cosmos-2251-debris", "lat": 7.026716350906138, "lon": -120.14798989276439, "alt_km": 569.9606852868101, "timestamp": "2025-12-21T22:41:41.852162+00:00", "meta": {"OBJECT_NAME": "COSMOS 2251 DEB", "OBJECT_ID": "1993-036EU", "EPOCH": "2025-12-21T12:19:38.839008", "MEAN_MOTION": 15.0044313, "ECCENTRICITY": 0.00046879, "INCLINATION": 74.0061, "RA_OF_ASC_NODE": 62.7578, "ARG_OF_PERICENTER": 24.9519, "MEAN_ANOMALY": 335.1894, "EPHEMERIS_TYPE": 0, "CLASSIFICATION_TYPE": "U", "NORAD_CAT_ID": 33939, "ELEMENT_SET_NO": 999, "REV_AT_EPOCH": 88884, "BSTAR": 0.0021754304, "MEAN_MOTION_DOT": 0.00027451, "MEAN_MOTION_DDOT": 0}, "tle": {"line1": "1 33939U 93036EU  25355.51364397  .00027451  00000+0  21754-2 0  9995", "line2": "2 33939  74.0061  62.7578 0004687  24.9519 335.1894 15.00443130888847"}}, "geometry": {"type": "Point", "coordinates": [-120.14798989276439, 7.026716350906138]}}, {"type": "Feature", "properties": {"norad_id": 33940, "name": "COSMOS 2251 DEB", "group": "cosmos-2251-debris", "lat": 12.348923542176882, "lon": 129.56011549075515, "alt_km": 705.2126035970723, "timestamp": "2025-12-21T22:41:41.852172+00:00", "meta": {"OBJECT_NAME": "COSMOS 2251 DEB", "OBJECT_ID": "1993-036EV", "EPOCH": "2025-12-21T09:45:24.520320", "MEAN_MOTION": 14.58869664, "ECCENTRICITY": 0.00109008, "INCLINATION": 74.0398, "RA_OF_ASC_NODE": 126.9941, "ARG_OF_PERICENTER": 207.5028, "MEAN_ANOMALY": 215.3307, "EPHEMERIS_TYPE": 0, "CLASSIFICATION_TYPE": "U", "NORAD_CAT_ID": 33940, "ELEMENT_SET_NO": 999, "REV_AT_EPOCH": 88720, "BSTAR": 0.00082628105, "MEAN_MOTION_DOT": 3.845e-05, "MEAN_MOTION_DDOT": 0}, "tle": {"line1": "1 33940U 93036EV  25355.40653380  .00003845  00000+0  82628-3 0  9997", "line2": "2 33940  74.0398 126.9941 0010900 207.5028 215.3307 14.58869664887201"}}, "geometry": {"type": "Point", "coordinates": [129.56011549075515, 12.348923542176882]}}, {"type": "Feature", "properties": {"norad_id": 33942, "name": "COSMOS 2251 DEB", "group": "cosmos-2251-debris", "lat": -56.32334806346755, "lon": 103.3162196715997, "alt_km": 774.2384081241999, "timestamp": "2025-12-21T22:41:41.852182+00:00", "meta": {"OBJECT_NAME": "COSMOS 2251 DEB", "OBJECT_ID": "1993-036EX", "EPOCH": "2025-12-21T12:22:08.875200", "MEAN_MOTION": 14.38000214, "ECCENTRICITY": 0.00206826, "INCLINATION": 74.0364, "RA_OF_ASC_NODE": 258.6672, "ARG_OF_PERICENTER": 340.3149, "MEAN_ANOMALY": 193.4234, "EPHEMERIS_TYPE": 0, "CLASSIFICATION_TYPE": "U", "NORAD_CAT_ID": 33942, "ELEMENT_SET_NO": 999, "REV_AT_EPOCH": 88260, "BSTAR": 0.00017547731, "MEAN_MOTION_DOT": 5.06e-06, "MEAN_MOTION_DDOT": 0}, "tle": {"line1": "1 33942U 93036EX  25355.51538050  .00000506  00000+0  17548-3 0  9997", "line2": "2 33942  74.0364 258.6672 0020682 340.3149 193.4234 14.38000214882608"}}, "geometry": {"type": "Point", "coordinates": [103.3162196715997, -56.32334806346755]}}, {"type": "Feature", "properties": {"norad_id": 33944, "name": "COSMOS 2251 DEB", "group": "cosmos-2251-debris", "lat": 73.42357695276213, "lon": 37.969783461680265, "alt_km": 725.4345428670631, "timestamp": "2025-12-21T22:41:41.852192+00:00", "meta": {"OBJECT_NAME": "COSMOS 2251 DEB", "OBJECT_ID": "1993-036EZ", "EPOCH": "2025-12-21T14:43:58.954656", "MEAN_MOTION": 14.37361848, "ECCENTRICITY": 0.01125587, "INCLINATION": 74.0407, "RA_OF_ASC_NODE": 292.5995, "ARG_OF_PERICENTER": 29.9282, "MEAN_ANOMALY": 147.4692, "EPHEMERIS_TYPE": 0, "CLASSIFICATION_TYPE": "U", "NORAD_CAT_ID": 33944, "ELEMENT_SET_NO": 999, "REV_AT_EPOCH": 88155, "BSTAR": 0.00029103732, "MEAN_MOTION_DOT": 9.08e-06, "MEAN_MOTION_DDOT": 0}, "tle": {"line1": "1 33944U 93036EZ  25355.61387679  .00000908  00000+0  29104-3 0  9996", "line2": "2 33944  74.0407 292.5995 0112558  29.9282 147.4692 14.37361848881557"}}, "geometry": {"type": "Point", "coordinates": [37.969783461680265, 73.42357695276213]}}, {"type": "Feature", "properties": {"norad_id": 33945, "name": "COSMOS 2251 DEB", "group": "cosmos-2251-debris", "lat": 23.573239615010287, "lon": 102.22124069187096, "alt_km": 788.0630404999929, "timestamp": "2025-12-21T22:41:41.852202+00:00", "meta": {"OBJECT_NAME": "COSMOS 2251 DEB", "OBJECT_ID": "1993-036FA", "EPOCH": "2025-12-21T13:36:23.177088", "MEAN_MOTION": 14.34607261, "ECCENTRICITY": 0.00222916, "INCLINATION": 74.0302, "RA_OF_ASC_NODE": 290.0926, "ARG_OF_PERICENTER": 14.0442, "MEAN_ANOMALY": 346.1325, "EPHEMERIS_TYPE": 0, "CLASSIFICATION_TYPE": "U", "NORAD_CAT_ID": 33945, "ELEMENT_SET_NO": 999, "REV_AT_EPOCH": 88142, "BSTAR": 0.00010589694, "MEAN_MOTION_DOT": 2.74e-06, "MEAN_MOTION_DDOT": 0}, "tle": {"line1": "1 33945U 93036FA  25355.56693492  .00000274  00000+0  10590-3 0  9999", "line2": "2 33945  74.0302 290.0926 0022291  14.0442 346.1325 14.34607261881422"}}, "geometry": {"type": "Point", "coordinates": [102.22124069187096, 23.573239615010287]}}, {"type": "Feature", "properties": {"norad_id": 33948, "name": "COSMOS 2251 DEB", "group": "cosmos-2251-debris", "lat": 36.5582812280078, "lon": -59.50117551205, "alt_km": 756.7094856057602, "timestamp": "2025-12-21T22:41:41.852212+00:00", "meta": {"OBJECT_NAME": "COSMOS 2251 DEB", "OBJECT_ID": "1993-036FD", "EPOCH": "2025-12-21T05:47:38.503104", "MEAN_MOTION": 14.35638545, "ECCENTRICITY": 0.0023112, "INCLINATION": 74.036, "RA_OF_ASC_NODE": 289.5352, "ARG_OF_PERICENTER": 3.3107, "MEAN_ANOMALY": 356.8194, "EPHEMERIS_TYPE": 0, "CLASSIFICATION_TYPE": "U", "NORAD_CAT_ID": 33948, "ELEMENT_SET_NO": 999, "REV_AT_EPOCH": 88145, "BSTAR": 0.00015521, "MEAN_MOTION_DOT": 4.23e-06, "MEAN_MOTION_DDOT": 0}, "tle": {"line1": "1 33948U 93036FD  25355.24141786  .00000423  00000+0  15521-3 0  9996", "line2": "2 33948  74.0360 289.5352 0023112   3.3107 356.8194 14.35638545881452"}}, "geometry": {"type": "Point", "coordinates": [-59.50117551205, 36.5582812280078]}}, {"type": "Feature", "properties": {"norad_id": 33971, "name": "COSMOS 2251 DEB", "group": "cosmos-2251-debris", "lat": -57.75704802218751, "lon": 83.7306331992699, "alt_km": 767.0191540283586, "timestamp": "2025-12-21T22:41:41.852222+00:00", "meta": {"OBJECT_NAME": "COSMOS 2251 DEB", "OBJECT_ID": "1993-036FE", "EPOCH": "2025-12-21T03:57:31.252320", "MEAN_MOTION": 14.39738677, "ECCENTRICITY": 0.00188756, "INCLINATION": 74.0243, "RA_OF_ASC_NODE": 238.1624, "ARG_OF_PERICENTER": 337.2094, "MEAN_ANOMALY": 179.8953, "EPHEMERIS_TYPE": 0, "CLASSIFICATION_TYPE": "U", "NORAD_CAT_ID": 33971, "ELEMENT_SET_NO": 999, "REV_AT_EPOCH": 88260, "BSTAR": 0.00018889732, "MEAN_MOTION_DOT": 5.66e-06, "MEAN_MOTION_DDOT": 0}, "tle": {"line1": "1 33971U 93036FE  25355.16494505  .00000566  00000+0  18890-3 0  9993", "line2": "2 33971  74.0243 238.1624 0018875 337.2094 179.8953 14.39738677882609"}}, "geometry": {"type": "Point", "coordinates": [83.7306331992699, -57.75704802218751]}}, {"type": "Feature", "properties": {"norad_id": 33972, "name": "COSMOS 2251 DEB", "group": "cosmos-2251-debris", "lat": 61.43680180462605, "lon": -154.4660469981428, "alt_km": 758.2126464843586, "timestamp": "2025-12-21T22:41:41.852232+00:00", "meta": {"OBJECT_NAME": "COSMOS 2251 DEB", "OBJECT_ID": "1993-036FF", "EPOCH": "2025-12-20T07:06:08.155872", "MEAN_MOTION": 14.3627436, "ECCENTRICITY": 0.0123671, "INCLINATION": 73.9935, "RA_OF_ASC_NODE": 176.7482, "ARG_OF_PERICENTER": 342.8449, "MEAN_ANOMALY": 195.3138, "EPHEMERIS_TYPE": 0, "CLASSIFICATION_TYPE": "U", "NORAD_CAT_ID": 33972, "ELEMENT_SET_NO": 999, "REV_AT_EPOCH": 87182, "BSTAR": 0.00083133088, "MEAN_MOTION_DOT": 2.623e-05, "MEAN_MOTION_DDOT": 0}, "tle": {"line1": "1 33972U 93036FF  25354.29592773  .00002623  00000+0  83133-3 0  9991", "line2": "2 33972  73.9935 176.7482 0123671 342.8449 195.3138 14.36274360871823"}}, "geometry": {"type": "Point", "coordinates": [-154.4660469981428, 61.43680180462605]}}, {"type": "Feature", "properties": {"norad_id": 33973, "name": "COSMOS 2251 DEB", "group": "cosmos-2251-debris", "lat": 58.316989615279944, "lon": -121.98114645474962, "alt_km": 762.2335976613731, "timestamp": "2025-12-21T22:41:41.852242+00:00", "meta": {"OBJECT_NAME": "COSMOS 2251 DEB", "OBJECT_ID": "1993-036FG", "EPOCH": "2025-12-21T12:15:16.922592", "MEAN_MOTION": 14.45399553, "ECCENTRICITY": 0.00473947, "INCLINATION": 74.0086, "RA_OF_ASC_NODE": 86.5169, "ARG_OF_PERICENTER": 263.3287, "MEAN_ANOMALY": 112.0169, "EPHEMERIS_TYPE": 0, "CLASSIFICATION_TYPE": "U", "NORAD_CAT_ID": 33973, "ELEMENT_SET_NO": 999, "REV_AT_EPOCH": 88727, "BSTAR": 0.00011779139, "MEAN_MOTION_DOT": 3.92e-06, "MEAN_MOTION_DDOT": 0}, "tle": {"line1": "1 33973U 93036FG  25355.51061253  .00000392  00000+0  11779-3 0  9990", "line2": "2 33973  74.0086  86.5169 0047394 263.3287 112.0169 14.45399553887275"}}, "geometry": {"type": "Point", "coordinates": [-121.98114645474962, 58.316989615279944]}}, {"type": "Feature", "properties": {"norad_id": 33975, "name": "COSMOS 2251 DEB", "group": "cosmos-2251-debris", "lat": 13.585135874323061, "lon": 72.29880704472166, "alt_km": 1030.7835210999638, "timestamp": "2025-12-21T22:41:41.852252+00:00", "meta": {"OBJECT_NAME": "COSMOS 2251 DEB", "OBJECT_ID": "1993-036FJ", "EPOCH": "2025-12-21T12:20:21.152544", "MEAN_MOTION": 14.00541111, "ECCENTRICITY": 0.01910169, "INCLINATION": 73.8017, "RA_OF_ASC_NODE": 69.0291, "ARG_OF_PERICENTER": 200.5729, "MEAN_ANOMALY": 158.764, "EPHEMERIS_TYPE": 0, "CLASSIFICATION_TYPE": "U", "NORAD_CAT_ID": 33975, "ELEMENT_SET_NO": 999, "REV_AT_EPOCH": 85952, "BSTAR": 0.00042293671, "MEAN_MOTION_DOT": 7.1e-06, "MEAN_MOTION_DDOT": 0}, "tle": {"line1": "1 33975U 93036FJ  25355.51413371  .00000710  00000+0  42294-3 0  9994", "line2": "2 33975  73.8017  69.0291 0191016 200.5729 158.7640 14.00541111859523"}}, "geometry": {"type": "Point", "coordinates": [72.29880704472166, 13.585135874323061]}}]}